STARLINK-36483          
1 67330U 26002AB  26020.91668981  .00019132  00000+0  12743-3 0  9992
2 67330  42.9987 239.5365 0001917 264.6640  15.2655 15.75028403  3898
STARLINK-36494          
1 67331U 26002AC  26020.91668981  .00005431  00000+0  38455-4 0  9999
2 67331  42.9989 239.5515 0001747 285.6936 348.4847 15.75030821  3891
STARLINK-36492          
1 67332U 26002AD  26020.91668981  .00020346  00000+0  13531-3 0  9999
2 67332  42.9987 239.5418 0001931 265.1819  12.8313 15.75027360  3894
STARLINK-36427          
1 67333U 26002AE  26020.91668981 -.01930840  00000+0 -14625-1 0  9995
2 67333  42.9969 238.8962 0001359 275.4155 257.5068 15.74830915  3793
STARLINK-35343          
1 67334U 26003A   26020.91668981 -.01415017  00000+0 -72185-2 0  9997
2 67334  42.9981 142.9335 0001062 283.4385 244.0763 15.82986809  2933
STARLINK-36486          
1 67335U 26003B   26020.91668981 -.01502107  00000+0 -76887-2 0  9998
2 67335  42.9982 142.9291 0001498 282.8341 246.5319 15.83073146  2996
STARLINK-36480          
1 67336U 26003C   26020.91668981 -.01485047  00000+0 -76009-2 0  9998
2 67336  42.9983 142.9234 0001420 283.4100 248.2686 15.83043549  2990
STARLINK-36410          
1 67337U 26003D   26020.91668981 -.01514958  00000+0 -77768-2 0  9996
2 67337  42.9983 142.9173 0001410 284.7064 249.2894 15.83038063  2992
STARLINK-36413          
1 67338U 26003E   26020.91668981 -.01499867  00000+0 -76958-2 0  9998
2 67338  42.9983 142.9119 0001398 282.9339 253.2461 15.83019618  2993
STARLINK-36451          
1 67339U 26003F   26020.91668981 -.01499497  00000+0 -76986-2 0  9999
2 67339  42.9982 142.9057 0001551 282.8359 255.5870 15.83004222  2990
STARLINK-36339          
1 67340U 26003G   26020.91668981 -.01524294  00000+0 -78547-2 0  9990
2 67340  42.9981 142.8997 0001450 282.7256 258.2619 15.82975223  2994
STARLINK-36453          
1 67341U 26003H   26020.91668981 -.01524747  00000+0 -78705-2 0  9990
2 67341  42.9984 142.8931 0001434 286.7187 256.7568 15.82940570  2998
