CCSDS_OMM_VERS = 2.0
CREATION_DATE  = 
ORIGINATOR     = 

OBJECT_NAME    = STARLINK-36483
OBJECT_ID      = 2026-002AB
CENTER_NAME    = EARTH
REF_FRAME      = TEME
TIME_SYSTEM    = UTC
MEAN_ELEMENT_THEORY = SGP/SGP4

EPOCH          = 2026-01-20T22:00:01.999584
MEAN_MOTION    = 15.75028403
ECCENTRICITY   = .00019175
INCLINATION    = 42.9987
RA_OF_ASC_NODE = 239.5365
ARG_OF_PERICENTER = 264.6640
MEAN_ANOMALY   = 15.2655

EPHEMERIS_TYPE = 0
CLASSIFICATION_TYPE = U
NORAD_CAT_ID   = 67330
ELEMENT_SET_NO = 999
REV_AT_EPOCH   = 389
BSTAR          = .12742667E-3
MEAN_MOTION_DOT = .19132E-3
MEAN_MOTION_DDOT = 0

CCSDS_OMM_VERS = 2.0
CREATION_DATE  = 
ORIGINATOR     = 

OBJECT_NAME    = STARLINK-36494
OBJECT_ID      = 2026-002AC
CENTER_NAME    = EARTH
REF_FRAME      = TEME
TIME_SYSTEM    = UTC
MEAN_ELEMENT_THEORY = SGP/SGP4

EPOCH          = 2026-01-20T22:00:01.999584
MEAN_MOTION    = 15.75030821
ECCENTRICITY   = .0001747
INCLINATION    = 42.9989
RA_OF_ASC_NODE = 239.5515
ARG_OF_PERICENTER = 285.6936
MEAN_ANOMALY   = 348.4847

EPHEMERIS_TYPE = 0
CLASSIFICATION_TYPE = U
NORAD_CAT_ID   = 67331
ELEMENT_SET_NO = 999
REV_AT_EPOCH   = 389
BSTAR          = .38455141E-4
MEAN_MOTION_DOT = .5431E-4
MEAN_MOTION_DDOT = 0

CCSDS_OMM_VERS = 2.0
CREATION_DATE  = 
ORIGINATOR     = 

OBJECT_NAME    = STARLINK-36492
OBJECT_ID      = 2026-002AD
CENTER_NAME    = EARTH
REF_FRAME      = TEME
TIME_SYSTEM    = UTC
MEAN_ELEMENT_THEORY = SGP/SGP4

EPOCH          = 2026-01-20T22:00:01.999584
MEAN_MOTION    = 15.75027360
ECCENTRICITY   = .00019319
INCLINATION    = 42.9987
RA_OF_ASC_NODE = 239.5418
ARG_OF_PERICENTER = 265.1819
MEAN_ANOMALY   = 12.8313

EPHEMERIS_TYPE = 0
CLASSIFICATION_TYPE = U
NORAD_CAT_ID   = 67332
ELEMENT_SET_NO = 999
REV_AT_EPOCH   = 389
BSTAR          = .13530645E-3
MEAN_MOTION_DOT = .20346E-3
MEAN_MOTION_DDOT = 0

CCSDS_OMM_VERS = 2.0
CREATION_DATE  = 
ORIGINATOR     = 

OBJECT_NAME    = STARLINK-36427
OBJECT_ID      = 2026-002AE
CENTER_NAME    = EARTH
REF_FRAME      = TEME
TIME_SYSTEM    = UTC
MEAN_ELEMENT_THEORY = SGP/SGP4

EPOCH          = 2026-01-20T22:00:01.999584
MEAN_MOTION    = 15.74830915
ECCENTRICITY   = .00013596
INCLINATION    = 42.9969
RA_OF_ASC_NODE = 238.8962
ARG_OF_PERICENTER = 275.4155
MEAN_ANOMALY   = 257.5068

EPHEMERIS_TYPE = 0
CLASSIFICATION_TYPE = U
NORAD_CAT_ID   = 67333
ELEMENT_SET_NO = 999
REV_AT_EPOCH   = 379
BSTAR          = -.14624588E-1
MEAN_MOTION_DOT = -.193084E-1
MEAN_MOTION_DDOT = 0

CCSDS_OMM_VERS = 2.0
CREATION_DATE  = 
ORIGINATOR     = 

OBJECT_NAME    = STARLINK-35343
OBJECT_ID      = 2026-003A
CENTER_NAME    = EARTH
REF_FRAME      = TEME
TIME_SYSTEM    = UTC
MEAN_ELEMENT_THEORY = SGP/SGP4

EPOCH          = 2026-01-20T22:00:01.999584
MEAN_MOTION    = 15.82986809
ECCENTRICITY   = .0001062
INCLINATION    = 42.9981
RA_OF_ASC_NODE = 142.9335
ARG_OF_PERICENTER = 283.4385
MEAN_ANOMALY   = 244.0763

EPHEMERIS_TYPE = 0
CLASSIFICATION_TYPE = U
NORAD_CAT_ID   = 67334
ELEMENT_SET_NO = 999
REV_AT_EPOCH   = 293
BSTAR          = -.72185365E-2
MEAN_MOTION_DOT = -.1415017E-1
MEAN_MOTION_DDOT = 0

CCSDS_OMM_VERS = 2.0
CREATION_DATE  = 
ORIGINATOR     = 

OBJECT_NAME    = STARLINK-36486
OBJECT_ID      = 2026-003B
CENTER_NAME    = EARTH
REF_FRAME      = TEME
TIME_SYSTEM    = UTC
MEAN_ELEMENT_THEORY = SGP/SGP4

EPOCH          = 2026-01-20T22:00:01.999584
MEAN_MOTION    = 15.83073146
ECCENTRICITY   = .00014986
INCLINATION    = 42.9982
RA_OF_ASC_NODE = 142.9291
ARG_OF_PERICENTER = 282.8341
MEAN_ANOMALY   = 246.5319

EPHEMERIS_TYPE = 0
CLASSIFICATION_TYPE = U
NORAD_CAT_ID   = 67335
ELEMENT_SET_NO = 999
REV_AT_EPOCH   = 299
BSTAR          = -.76886872E-2
MEAN_MOTION_DOT = -.1502107E-1
MEAN_MOTION_DDOT = 0

CCSDS_OMM_VERS = 2.0
CREATION_DATE  = 
ORIGINATOR     = 

OBJECT_NAME    = STARLINK-36480
OBJECT_ID      = 2026-003C
CENTER_NAME    = EARTH
REF_FRAME      = TEME
TIME_SYSTEM    = UTC
MEAN_ELEMENT_THEORY = SGP/SGP4

EPOCH          = 2026-01-20T22:00:01.999584
MEAN_MOTION    = 15.83043549
ECCENTRICITY   = .00014201
INCLINATION    = 42.9983
RA_OF_ASC_NODE = 142.9234
ARG_OF_PERICENTER = 283.4100
MEAN_ANOMALY   = 248.2686

EPHEMERIS_TYPE = 0
CLASSIFICATION_TYPE = U
NORAD_CAT_ID   = 67336
ELEMENT_SET_NO = 999
REV_AT_EPOCH   = 299
BSTAR          = -.76008705E-2
MEAN_MOTION_DOT = -.1485047E-1
MEAN_MOTION_DDOT = 0

CCSDS_OMM_VERS = 2.0
CREATION_DATE  = 
ORIGINATOR     = 

OBJECT_NAME    = STARLINK-36410
OBJECT_ID      = 2026-003D
CENTER_NAME    = EARTH
REF_FRAME      = TEME
TIME_SYSTEM    = UTC
MEAN_ELEMENT_THEORY = SGP/SGP4

EPOCH          = 2026-01-20T22:00:01.999584
MEAN_MOTION    = 15.83038063
ECCENTRICITY   = .00014101
INCLINATION    = 42.9983
RA_OF_ASC_NODE = 142.9173
ARG_OF_PERICENTER = 284.7064
MEAN_ANOMALY   = 249.2894

EPHEMERIS_TYPE = 0
CLASSIFICATION_TYPE = U
NORAD_CAT_ID   = 67337
ELEMENT_SET_NO = 999
REV_AT_EPOCH   = 299
BSTAR          = -.77768331E-2
MEAN_MOTION_DOT = -.1514958E-1
MEAN_MOTION_DDOT = 0

CCSDS_OMM_VERS = 2.0
CREATION_DATE  = 
ORIGINATOR     = 

OBJECT_NAME    = STARLINK-36413
OBJECT_ID      = 2026-003E
CENTER_NAME    = EARTH
REF_FRAME      = TEME
TIME_SYSTEM    = UTC
MEAN_ELEMENT_THEORY = SGP/SGP4

EPOCH          = 2026-01-20T22:00:01.999584
MEAN_MOTION    = 15.83019618
ECCENTRICITY   = .00013981
INCLINATION    = 42.9983
RA_OF_ASC_NODE = 142.9119
ARG_OF_PERICENTER = 282.9339
MEAN_ANOMALY   = 253.2461

EPHEMERIS_TYPE = 0
CLASSIFICATION_TYPE = U
NORAD_CAT_ID   = 67338
ELEMENT_SET_NO = 999
REV_AT_EPOCH   = 299
BSTAR          = -.76957933E-2
MEAN_MOTION_DOT = -.1499867E-1
MEAN_MOTION_DDOT = 0

CCSDS_OMM_VERS = 2.0
CREATION_DATE  = 
ORIGINATOR     = 

OBJECT_NAME    = STARLINK-36451
OBJECT_ID      = 2026-003F
CENTER_NAME    = EARTH
REF_FRAME      = TEME
TIME_SYSTEM    = UTC
MEAN_ELEMENT_THEORY = SGP/SGP4

EPOCH          = 2026-01-20T22:00:01.999584
MEAN_MOTION    = 15.83004222
ECCENTRICITY   = .00015516
INCLINATION    = 42.9982
RA_OF_ASC_NODE = 142.9057
ARG_OF_PERICENTER = 282.8359
MEAN_ANOMALY   = 255.5870

EPHEMERIS_TYPE = 0
CLASSIFICATION_TYPE = U
NORAD_CAT_ID   = 67339
ELEMENT_SET_NO = 999
REV_AT_EPOCH   = 299
BSTAR          = -.76986469E-2
MEAN_MOTION_DOT = -.1499497E-1
MEAN_MOTION_DDOT = 0

CCSDS_OMM_VERS = 2.0
CREATION_DATE  = 
ORIGINATOR     = 

OBJECT_NAME    = STARLINK-36339
OBJECT_ID      = 2026-003G
CENTER_NAME    = EARTH
REF_FRAME      = TEME
TIME_SYSTEM    = UTC
MEAN_ELEMENT_THEORY = SGP/SGP4

EPOCH          = 2026-01-20T22:00:01.999584
MEAN_MOTION    = 15.82975223
ECCENTRICITY   = .00014508
INCLINATION    = 42.9981
RA_OF_ASC_NODE = 142.8997
ARG_OF_PERICENTER = 282.7256
MEAN_ANOMALY   = 258.2619

EPHEMERIS_TYPE = 0
CLASSIFICATION_TYPE = U
NORAD_CAT_ID   = 67340
ELEMENT_SET_NO = 999
REV_AT_EPOCH   = 299
BSTAR          = -.78547222E-2
MEAN_MOTION_DOT = -.1524294E-1
MEAN_MOTION_DDOT = 0

CCSDS_OMM_VERS = 2.0
CREATION_DATE  = 
ORIGINATOR     = 

OBJECT_NAME    = STARLINK-36453
OBJECT_ID      = 2026-003H
CENTER_NAME    = EARTH
REF_FRAME      = TEME
TIME_SYSTEM    = UTC
MEAN_ELEMENT_THEORY = SGP/SGP4

EPOCH          = 2026-01-20T22:00:01.999584
MEAN_MOTION    = 15.82940570
ECCENTRICITY   = .00014346
INCLINATION    = 42.9984
RA_OF_ASC_NODE = 142.8931
ARG_OF_PERICENTER = 286.7187
MEAN_ANOMALY   = 256.7568

EPHEMERIS_TYPE = 0
CLASSIFICATION_TYPE = U
NORAD_CAT_ID   = 67341
ELEMENT_SET_NO = 999
REV_AT_EPOCH   = 299
BSTAR          = -.78704752E-2
MEAN_MOTION_DOT = -.1524747E-1
MEAN_MOTION_DDOT = 0

